{
  "norad_id": 68762,
  "name": "2026-083H",
  "history": [
    {
      "epoch": "2026-04-18T10:09:19.595808Z",
      "apogee_km": 553.7006541283645,
      "perigee_km": 538.4492464024706,
      "latitude_deg": -1.7964381476510914e-06,
      "longitude_deg": -110.30330522749009,
      "height_km": 551.3071356625469,
      "semi_major_axis_km": 6924.211950265418,
      "eccentricity": 0.00110131,
      "inclination_deg": 96.9501,
      "raan_deg": 248.5707,
      "arg_perigee_deg": 253.7113,
      "mean_anomaly_deg": 106.2905,
      "mean_motion_rev_day": 15.06770928
    },
    {
      "epoch": "2026-04-19T13:15:01.888416Z",
      "apogee_km": 553.7487817287047,
      "perigee_km": 538.3823144658645,
      "latitude_deg": 6.459352883770146e-05,
      "longitude_deg": -156.82278862370845,
      "height_km": 551.8962973942733,
      "semi_major_axis_km": 6924.202548097284,
      "eccentricity": 0.00110962,
      "inclination_deg": 96.9504,
      "raan_deg": 249.5902,
      "arg_perigee_deg": 249.1289,
      "mean_anomaly_deg": 110.8753,
      "mean_motion_rev_day": 15.06773997
    },
    {
      "epoch": "2026-04-20T16:20:44.055744Z",
      "apogee_km": 553.7929234812746,
      "perigee_km": 538.3187373438686,
      "latitude_deg": 2.4693291046374673e-05,
      "longitude_deg": 156.6582629252934,
      "height_km": 552.4539571196555,
      "semi_major_axis_km": 6924.192830412571,
      "eccentricity": 0.0011174,
      "inclination_deg": 96.9507,
      "raan_deg": 250.6097,
      "arg_perigee_deg": 244.716,
      "mean_anomaly_deg": 115.2912,
      "mean_motion_rev_day": 15.06777169
    },
    {
      "epoch": "2026-04-21T14:39:32.768352Z",
      "apogee_km": 553.9044187164691,
      "perigee_km": 538.1906743066165,
      "latitude_deg": -1.0543286720066782e-05,
      "longitude_deg": -178.12178847440504,
      "height_km": 552.9365449342075,
      "semi_major_axis_km": 6924.184546511543,
      "eccentricity": 0.0011347,
      "inclination_deg": 96.9509,
      "raan_deg": 251.449,
      "arg_perigee_deg": 241.1146,
      "mean_anomaly_deg": 118.8945,
      "mean_motion_rev_day": 15.06779873
    },
    {
      "epoch": "2026-04-22T12:58:21.073152Z",
      "apogee_km": 553.8653051526026,
      "perigee_km": 538.2032451784553,
      "latitude_deg": 4.576509513315096e-05,
      "longitude_deg": -152.89944714951662,
      "height_km": 553.3440056976132,
      "semi_major_axis_km": 6924.171275165529,
      "eccentricity": 0.00113097,
      "inclination_deg": 96.9512,
      "raan_deg": 252.289,
      "arg_perigee_deg": 237.4269,
      "mean_anomaly_deg": 122.5869,
      "mean_motion_rev_day": 15.06784205
    }
  ]
}